[{"OBJECT_NAME":"EDISON-1","OBJECT_ID":"2025-009B","EPOCH":"2026-03-09T19:16:13.822464","MEAN_MOTION":15.29042904,"ECCENTRICITY":0.00043285,"INCLINATION":97.4042,"RA_OF_ASC_NODE":151.6286,"ARG_OF_PERICENTER":306.4185,"MEAN_ANOMALY":53.6655,"EPHEMERIS_TYPE":0,"CLASSIFICATION_TYPE":"U","NORAD_CAT_ID":62610,"ELEMENT_SET_NO":999,"REV_AT_EPOCH":6375,"BSTAR":0.00052814963,"MEAN_MOTION_DOT":0.00014835,"MEAN_MOTION_DDOT":0},{"OBJECT_NAME":"STARLINK-32803","OBJECT_ID":"2025-032V","EPOCH":"2026-03-08T10:54:52.614432","MEAN_MOTION":15.27597366,"ECCENTRICITY":0.00016596,"INCLINATION":43.0009,"RA_OF_ASC_NODE":342.8063,"ARG_OF_PERICENTER":37.5276,"MEAN_ANOMALY":322.5691,"EPHEMERIS_TYPE":0,"CLASSIFICATION_TYPE":"U","NORAD_CAT_ID":63024,"ELEMENT_SET_NO":999,"REV_AT_EPOCH":6027,"BSTAR":0.0017047347,"MEAN_MOTION_DOT":0.00046973,"MEAN_MOTION_DDOT":0}]
